TYVAK-0173              
1 48892U 21059P   25164.73429203  .00002242  00000+0  30218-3 0  9992
2 48892  95.9866 328.3611 0009268 186.7975 173.3117 14.79741285213713
TUBIN                   
1 48900U 21059X   25164.82727937  .00066096  00000+0  78602-3 0  9993
2 48900  97.6750 334.3991 0003626 199.8591 160.2524 15.60925705220709
MANDRAKE 2 ABLE         
1 48907U 21059AE  25164.16830880  .00023232  00000+0  58744-3 0  9999
2 48907  97.6890 325.8062 0004796 249.4307 110.6423 15.39781991220082
MANDRAKE 2 BAKER        
1 48908U 21059AF  25164.23472135  .00026947  00000+0  64094-3 0  9994
2 48908  97.6890 327.0262 0004319 227.5061 132.5821 15.41612139220157
PACE-1                  
1 48909U 21059AG  25164.43484434  .00029194  00000+0  58932-3 0  9993
2 48909  97.6777 327.8129 0004406 216.2552 143.8399 15.46467354220336
YAM-2                   
1 48911U 21059AJ  25164.73569438  .00198121  00000+0  11077-2 0  9992
2 48911  97.6685 340.6479 0004712 194.5936 165.5195 15.78795827221073
YAM-3                   
1 48915U 21059AN  25164.17298552  .00016263  00000+0  43519-3 0  9993
2 48915  97.6835 325.3701 0005401 233.8609 126.2135 15.38114844220080
FARADAY_PHOENIX         
1 48924U 21059AX  25164.19116856  .00027858  00000+0  61739-3 0  9997
2 48924  97.6848 329.7920 0008109 222.7582 137.3035 15.43699485220324
DEMO8 (TENZING)         
1 48951U 21059CA  25164.72020904  .00019019  00000+0  47071-3 0  9997
2 48951  97.6925 329.7144 0008271 239.4436 120.5993 15.40455282220331
ASTROCAST-0201          
1 48954U 21059CD  25163.39831669  .00032458  00000+0  47519-3 0  9999
2 48954  97.6543 332.1090 0003559 251.2914 108.7953 15.55524250220539
ASTROCAST-0203          
1 48955U 21059CE  25164.18969984  .00060121  00000+0  87949-3 0  9999
2 48955  97.6553 332.4892 0003095 213.3353 146.7706 15.55411410220659
ASTROCAST-0205          
1 48960U 21059CK  25164.72794134  .00062136  00000+0  89678-3 0  9997
2 48960  97.6522 333.3275 0007378 191.0885 169.0207 15.55746296220743
NAPA-2                  
1 48963U 21059CN  25164.83272934  .00029110  00000+0  58178-3 0  9997
2 48963  97.6789 327.2259 0005723 221.0349 139.0470 15.46752108220283
W-CUBE                  
1 48965U 21059CQ  25164.73730920  .00148197  00000+0  11571-2 0  9994
2 48965  97.6675 336.4653 0005121 191.1257 168.9893 15.71194233220834
JILIN-1 GAOFEN 3D01     
1 49004U 21061B   25164.81719489  .00086482  00000+0  13280-2 0  9995
2 49004  97.3465 238.4670 0009438 193.4164 166.6840 15.53930216219283
JILIN-1 GAOFEN 3D03     
1 49006U 21061D   25164.83319675  .00045685  00000+0  10463-2 0  9992
2 49006  97.3426 230.3776 0005632   7.8222 352.3112 15.42627544218768
XINGSHIDAI 10           
1 49007U 21061E   25164.85978003  .00045396  00000+0  10528-2 0  9992
2 49007  97.3418 230.4025 0004715 353.8570   6.2619 15.42257739218761
FENGYUN 3E              
1 49008U 21062A   25164.86476455 -.00000001  00000+0  20372-4 0  9994
2 49008  98.7414 167.5411 0002747  79.4776 280.6709 14.19867324204318
ISS (NAUKA)             
1 49044U 21066A   25164.52429540  .00016286  00000+0  29099-3 0  9999
2 49044  51.6367 325.2298 0001501 238.5481 121.5362 15.50171114220370
LEDSAT                  
1 49069U 21073D   25164.72970990  .00120469  00000+0  13971-2 0  9996
2 49069  97.3890 246.4415 0008969  70.5097 289.7128 15.61350289212082
STARLINK-3100           
1 49144U 21082Q   25164.59199970  .00001468  00000+0  13075-3 0  9999
2 49144  69.9991 252.9321 0003614 271.0819  88.9926 14.98333143205674
CUTE                    
1 49263U 21088D   25162.16955597  .00014302  00000+0  28543-3 0  9990
2 49263  97.4534 238.4709 0007464 226.8323 133.2304 15.46929039204671
2021-091B               
1 49316U 21091B   25164.82391478  .00004295  00000+0  20654-3 0  9995
2 49316  97.4501 353.0945 0013634 165.2111 194.9525 15.19255377203098
SDGSAT 1                
1 49387U 21100A   25164.86077826  .00004304  00000+0  20387-3 0  9990
2 49387  97.3136 219.3979 0007599 152.7175 207.4461 15.19818027199982
TEIKYOSAT-4 (OORURI)    
1 49396U 21102B   25164.86520418  .00002965  00000+0  19809-3 0  9990
2 49396  97.4085 203.1392 0013971 116.2140 244.0527 15.07659305197194
Z-SAT                   
1 49399U 21102E   25164.84742222  .00006299  00000+0  34439-3 0  9990
2 49399  97.3790 206.2438 0019887  90.0767 270.2744 15.14451095197624
HIBARI                  
1 49400U 21102F   25164.64982242  .00013695  00000+0  58276-3 0  9992
2 49400  97.3755 210.9425 0015694  69.1870 291.1047 15.23004959197946
KOSEN-1                 
1 49402U 21102H   25164.55405580  .00010036  00000+0  46230-3 0  9992
2 49402  97.3692 209.4042 0017363  68.5313 291.7772 15.20349412197894
GLOBAL-14               
1 49469U 21106A   25164.75104957  .00021563  00000+0  62803-3 0  9996
2 49469  42.0084 290.8463 0005938 344.3463  15.7191 15.34928031201289
GAOFEN-3 02             
1 49495U 21109A   25164.85960999  .00000047  00000+0  27613-4 0  9990
2 49495  98.4105 173.1337 0003107  40.5667 319.5754 14.42216827187225
GLOBAL-12               
1 49772U 21115BA  25164.78200630  .00027831  00000+0  71717-3 0  9999
2 49772  53.2008 350.0190 0006446  82.7252 277.4486 15.39002908198994
GLOBAL-13               
1 49773U 21115BB  25164.88240799  .00026010  00000+0  67300-3 0  9992
2 49773  53.2019 350.8074 0006612  60.0652 300.1009 15.38914172198993
GLOBAL-17               
1 49949U 21120A   25164.74123002  .00022543  00000+0  64545-3 0  9990
2 49949  41.9999  52.7979 0003958 216.5307 143.5262 15.35451548197995
GLOBAL-16               
1 49950U 21120B   25164.77526771  .00021532  00000+0  61772-3 0  9991
2 49950  41.9995  52.1712 0005719 196.6686 163.3965 15.35403466197993
XW-3 (CAS-9)            
1 50466U 21131B   25164.85815251  .00000669  00000+0  22257-3 0  9993
2 50466  98.5104 254.1899 0005355 117.9154 242.2577 14.40820715182062
ION SCV-004             
1 50993U 22002K   25164.43237263  .00008076  00000+0  31899-3 0  9993
2 50993  97.3359 224.0150 0007290 211.5726 148.5076 15.25747898188981
ETV-A1                  
1 51060U 22002CE  25164.81889484  .00012750  00000+0  41779-3 0  9991
2 51060  97.3378 228.5016 0005487 211.8994 148.1916 15.31765054189299
BRO-5                   
1 51061U 22002CF  25164.85717316  .00014353  00000+0  40809-3 0  9994
2 51061  97.3451 232.7347 0005678 203.1652 156.9337 15.36243601189538
VZLUSAT-2               
1 51085U 22002DF  25164.84571490  .00082784  00000+0  11204-2 0  9999
2 51085  97.3320 237.8507 0006622 171.2591 188.8781 15.57412867189947
L-SAR 01A               
1 51284U 22007A   25164.84496770  .00000807  00000+0  92922-4 0  9996
2 51284  97.8100 172.5421 0001580  91.2479 268.8918 14.88421978183685
INSPIRESAT 1            
1 51657U 22013B   25164.58852100  .00045065  00000+0  93522-3 0  9992
2 51657  97.4882 194.2719 0004504 334.9885  25.1145 15.45562401185005
L-SAR 01B               
1 51822U 22018A   25164.87853410  .00000772  00000+0  89170-4 0  9999
2 51822  97.8117 172.5570 0001565  96.3073 263.8322 14.88418344178923
2022-019D               
1 51827U 22019D   25164.89145766  .00030937  00000+0  77224-3 0  9997
2 51827  97.3946 242.3655 0009829  44.2914 315.9116 15.40074751182575
JILIN-1 GAOFEN 03D14    
1 51831U 22019H   25164.86487855  .00045025  00000+0  10621-2 0  9998
2 51831  97.3971 244.7266 0009645  31.5244 328.6579 15.41711081182729
2022-019J               
1 51832U 22019J   25164.86297537  .00003681  00000+0  18260-3 0  9995
2 51832  97.3889 231.6376 0010754  80.2193 280.0255 15.18287944181879
JILIN-1 GAOFEN 03D16    
1 51834U 22019L   25164.84586400  .00046124  00000+0  10489-2 0  9998
2 51834  97.3947 245.1374 0007052  37.9529 322.2215 15.42828373182750
JILIN-1 GAOFEN 03D11    
1 51835U 22019M   25164.88025225  .00044752  00000+0  10649-2 0  9999
2 51835  97.3981 244.9428 0006644  55.9441 304.2435 15.41474747182738
JILIN-1 GAOFEN 03D17    
1 51838U 22019Q   25164.86308004  .00229177  00000+0  15637-2 0  9997
2 51838  97.3966 253.0759 0001376  21.8111 338.3212 15.74166849183273
JILIN-1 GAOFEN 03D15    
1 51839U 22019R   25164.81111336  .00040885  00000+0  10222-2 0  9995
2 51839  97.3955 244.2425 0006172  74.9021 285.2908 15.39996968182705
JILIN-1 GAOFEN 03D10    
1 51840U 22019S   25164.82785146  .00045832  00000+0  10911-2 0  9996
2 51840  97.3960 244.9863 0000639  63.5500 296.5812 15.41476405182738
JILIN-1 GAOFEN 03D12    
1 51841U 22019T   25164.83081168  .00042276  00000+0  10567-2 0  9997
2 51841  97.3940 244.1914 0003861  30.1064 330.0403 15.40009208182700
JILIN-1 GAOFEN 03D18    
1 51844U 22019W   25164.83852146  .00044304  00000+0  10563-2 0  9992
2 51844  97.3934 244.2313 0010141  29.8671 330.3153 15.41387497182613
2022-023F               
1 51951U 22023F   25164.82131188  .00040384  31750-6  17214-2 0  9998
2 51951  63.4900  85.2980 0096848 338.5669  21.1400 15.18401231158886
CZ-4C R/B               
1 52085U 22027B   25164.56951355 -.00000043  00000+0  56235-4 0  9992
2 52085  63.3968 320.0575 0199644  24.2857 336.7431 13.65446356161705
MERIDIAN 10             
1 52145U 22030A   25164.09075537  .00000274  00000+0  00000+0 0  9999
2 52145  62.6598 179.6572 6745283 273.3992  17.7752  2.00601939 23624
OMNI-L1                 
1 52157U 22033A   25164.19823205  .00003051  00000+0  40322-3 0  9990
2 52157  97.8689 245.4534 0006609  56.6363 303.5481 14.80704950172817
ENMAP                   
1 52159U 22033C   25164.86687941  .00000609  00000+0  98002-4 0  9996
2 52159  97.9790 247.4041 0001393  92.2219 267.9150 14.74981791172357
ARCSAT-1                
1 52161U 22033E   25164.75242175  .00012209  00000+0  27213-3 0  9997
2 52161  97.2931 249.1297 0007660  98.0207 262.1911 15.43704393178699
GLOBAL-18               
1 52196U 22034B   25164.39938145  .00027500  00000+0  71543-3 0  9990
2 52196  52.9828 204.1629 0005727 327.2380  32.8266 15.38715687180118
